IONOSFERA-M 2           
1 61736U 24199B   26192.91239031  .00000029  00000+0  32652-4 0  9998
2 61736  98.7139  65.7303 0000385 112.9228 247.1990 14.22762067134341
PRSC-EO1                
1 62725U 25012A   26192.32282968  .00004065  00000+0  20455-3 0  9995
2 62725  97.4221 264.3100 0006630 161.2543 198.8936 15.17752178 81852
BIOMASS                 
1 63772U 25090A   26192.85455120  .00000566  00000+0  10836-3 0  9998
2 63772  98.0746  19.8106 0001488  92.0380 268.0995 14.67537912 64306
GOSAT-GW (IBUKI GW)     
1 64694U 25141A   26192.94001973  .00000243  00000+0  51219-4 0  9995
2 64694  98.0565 129.8549 0001433  85.6331 274.5038 14.67554645 55476
IONOSFERA-M 3           
1 64876U 25155A   26192.95223384  .00000006  00000+0  22150-4 0  9994
2 64876  98.6038 154.2356 0002192 117.4899 242.6501 14.21490498 49922
IONOSFERA-M 4           
1 64877U 25155B   26192.98703291  .00000014  00000+0  25843-4 0  9999
2 64877  98.6037 154.1867 0001764 102.7969 257.3406 14.21492905 49929
MICROCARB               
1 64899U 25156A   26192.81403436  .00000276  00000+0  50799-4 0  9992
2 64899  98.0075 269.5636 0017351 181.4107 178.7055 14.72882876 51599
CO3D 3                  
1 64900U 25156B   26192.87116289  .00002436  00000+0  11557-3 0  9996
2 64900  97.4337 271.2091 0001830 100.3943 259.7499 15.20220495 53281
CO3D 4                  
1 64901U 25156C   26192.87133123  .00000760  00000+0  38215-4 0  9992
2 64901  97.4336 271.2095 0001372 159.6672 200.4618 15.20191120 53280
CO3D 2                  
1 64902U 25156D   26192.90380935  .00002566  00000+0  12160-3 0  9998
2 64902  97.4336 271.1401 0001305  88.8983 271.2401 15.20204989 53289
CO3D 1                  
1 64903U 25156E   26192.90395913  .00002597  00000+0  12303-3 0  9994
2 64903  97.4337 271.1403 0001308 101.3813 258.7569 15.20208580 53285
PRSC-S1                 
1 65055U 25164A   26192.92503639  .00002234  00000+0  15987-3 0  9999
2 65055  41.1292 148.4677 0006208 176.6251 183.4605 15.06619033 52168
SENTINEL-6B             
1 66514U 25264A   26192.83590267 -.00000071  00000+0 -41261-4 0  9998
2 66514  66.0413  83.9841 0007873 268.7579  91.2534 12.80930071 30329
CAS500-3                
1 66655U 25274F   26192.75414882  .00000675  00000+0  78680-4 0  9997
2 66655  97.7438 120.2465 0006461  47.2907 312.8853 14.88378865 33806
CSG-3                   
1 67304U 26001A   26192.97541170  .00000158  00000+0  26380-4 0  9999
2 67304  97.8893  16.2188 0001500  93.2995 266.8389 14.82150701 28130
PRSC-E03                
1 68835U 26092A   26192.77534390  .00001471  00000+0  10418-3 0  9996
2 68835  38.0020 304.6768 0004622 229.7942 130.2416 15.06799129 11668
CAS500-2                
1 69013U 26100AK  26192.69548464  .00003412  00000+0  15743-3 0  9996
2 69013  97.3877  90.0874 0008004 306.8039  53.2461 15.20876867 10531
